*******************************************************************************
 Revised: July 31, 2013             Moon                          301
 
 GEOPHYSICAL DATA (updated 2018-Aug-15):
  Vol. mean radius, km  = 1737.53+-0.03    Mass, x10^22 kg       =    7.349
  Radius (gravity), km  = 1738.0           Surface emissivity    =    0.92
  Radius (IAU), km      = 1737.4           GM, km^3/s^2          = 4902.800066
  Density, g/cm^3       =    3.3437        GM 1-sigma, km^3/s^2  =  +-0.0001  
  V(1,0)                =   +0.21          Surface accel., m/s^2 =    1.62
  Earth/Moon mass ratio = 81.3005690769    Farside crust. thick. = ~80 - 90 km
  Mean crustal density  = 2.97+-.07 g/cm^3 Nearside crust. thick.= 58+-8 km 
  Heat flow, Apollo 15  = 3.1+-.6 mW/m^2   Mean angular diameter = 31'05.2"
  Heat flow, Apollo 17  = 2.2+-.5 mW/m^2   Sid. rot. rate, rad/s = 0.0000026617
  Geometric Albedo      = 0.12             Mean solar day        = 29.5306 d
  Obliquity to orbit    = 6.67 deg         Orbit period          = 27.321582 d
  Semi-major axis, a    = 384400 km        Eccentricity          = 0.05490
  Mean motion, rad/s    = 2.6616995x10^-6  Inclination           = 5.145 deg
  Apsidal period        = 3231.50 d        Nodal period          = 6798.38 d
                                 Perihelion  Aphelion    Mean
  Solar Constant (W/m^2)         1414+-7     1323+-7     1368+-7
  Maximum Planetary IR (W/m^2)   1314        1226        1268
  Minimum Planetary IR (W/m^2)      5.2         5.2         5.2
********************************************************************************
 
 
*******************************************************************************
Ephemeris / WWW_USER Sat Mar 13 00:20:01 2021 Pasadena, USA      / Horizons
*******************************************************************************
Target body name: Moon (301)                      {source: DE431mx}
Center body name: Solar System Barycenter (0)     {source: DE431mx}
Center-site name: BODY CENTER
*******************************************************************************
Start time      : A.D. 2020-Apr-01 00:00:00.0000 TDB
Stop  time      : A.D. 2021-Apr-01 00:00:00.0000 TDB
Step-size       : 60 minutes
*******************************************************************************
Center geodetic : 0.00000000,0.00000000,0.0000000 {E-lon(deg),Lat(deg),Alt(km)}
Center cylindric: 0.00000000,0.00000000,0.0000000 {E-lon(deg),Dxy(km),Dz(km)}
Center radii    : (undefined)                                                  
Output units    : KM-S
Output type     : GEOMETRIC cartesian states
Output format   : 3 (position, velocity, LT, range, range-rate)
Reference frame : Ecliptic of J2000.0
*******************************************************************************
JDTDB
   X     Y     Z
   VX    VY    VZ
   LT    RG    RR
*******************************************************************************
$$SOE
2459167.500000000 = A.D. 2020-Nov-14 00:00:00.0000 TDB 
 X = 9.031639105554026E+07 Y = 1.170313697541711E+08 Z = 3.147403970515728E+04
 VX=-2.328395801372729E+01 VY= 1.741615249002509E+01 VZ=-7.043377180239307E-02
 LT= 4.931042378218413E+02 RG= 1.478289315068264E+08 RR=-4.375942632431422E-01
2459167.541666667 = A.D. 2020-Nov-14 01:00:00.0000 TDB 
 X = 9.023256095603585E+07 Y = 1.170940483587821E+08 Z = 3.121917187365144E+04
 VX=-2.328832890553650E+01 VY= 1.740530996955611E+01 VZ=-7.115816271503039E-02
 LT= 4.930990390253934E+02 RG= 1.478273729468606E+08 RR=-4.282669068326636E-01
2459167.583333333 = A.D. 2020-Nov-14 02:00:00.0000 TDB 
 X = 9.014871501883002E+07 Y = 1.171566880967259E+08 Z = 3.096171039544046E+04
 VX=-2.329275695560071E+01 VY= 1.739455976004682E+01 VZ=-7.187466881268456E-02
 LT= 4.930939524297152E+02 RG= 1.478258480238394E+08 RR=-4.189072655165693E-01
2459167.625000000 = A.D. 2020-Nov-14 03:00:00.0000 TDB 
 X = 9.006485303579646E+07 Y = 1.172192892988286E+08 Z = 3.070168384752423E+04
 VX=-2.329724347113803E+01 VY= 1.738390102832685E+01 VZ=-7.258318385138551E-02
 LT= 4.930889784155008E+02 RG= 1.478243568518919E+08 RR=-4.095165052683538E-01
2459167.666666667 = A.D. 2020-Nov-14 04:00:00.0000 TDB 
 X = 8.998097479412465E+07 Y = 1.172818522928788E+08 Z = 3.043912118682265E+04
 VX=-2.330178974723619E+01 VY= 1.737333292005848E+01 VZ=-7.328360301792891E-02
 LT= 4.930841173493963E+02 RG= 1.478228995409359E+08 RR=-4.000957998448542E-01
2459167.708333333 = A.D. 2020-Nov-14 05:00:00.0000 TDB 
 X = 8.989708007636416E+07 Y = 1.173443774035517E+08 Z = 3.017405174491554E+04
 VX=-2.330639706641730E+01 VY= 1.736285455995279E+01 VZ=-7.397582296594685E-02
 LT= 4.930793695839077E+02 RG= 1.478214761966501E+08 RR=-3.906463304335164E-01
2459167.750000000 = A.D. 2020-Nov-14 06:00:00.0000 TDB 
 X = 8.981316866047078E+07 Y = 1.174068649523339E+08 Z = 2.990650522281229E+04
 VX=-2.331106669820742E+01 VY= 1.735246505199708E+01 VZ=-7.465974185137281E-02
 LT= 4.930747354573142E+02 RG= 1.478200869204480E+08 RR=-3.811692852944596E-01
2459167.791666667 = A.D. 2020-Nov-14 07:00:00.0000 TDB 
 X = 8.972924031985405E+07 Y = 1.174693152574496E+08 Z = 2.963651168529689E+04
 VX=-2.331579989871106E+01 VY= 1.734216347969345E+01 VZ=-7.533525936726537E-02
 LT= 4.930702152935854E+02 RG= 1.478187318094532E+08 RR=-3.716658593976239E-01
2459167.833333333 = A.D. 2020-Nov-14 08:00:00.0000 TDB 
 X = 8.964529482342632E+07 Y = 1.175317286337872E+08 Z = 2.936410155554116E+04
 VX=-2.332059791019110E+01 VY= 1.733194890630855E+01 VZ=-7.600227677799776E-02
 LT= 4.930658094023030E+02 RG= 1.478174109564759E+08 RR=-3.621372540551109E-01
2459167.875000000 = A.D. 2020-Nov-14 09:00:00.0000 TDB 
 X = 8.956133193565331E+07 Y = 1.175941053928265E+08 Z = 2.908930560924858E+04
 VX=-2.332546196065445E+01 VY= 1.732182037513404E+01 VZ=-7.666069695270750E-02
 LT= 4.930615180785862E+02 RG= 1.478161244499908E+08 RR=-3.525846765491442E-01
2459167.916666667 = A.D. 2020-Nov-14 10:00:00.0000 TDB 
 X = 8.947735141660622E+07 Y = 1.176564458425679E+08 Z = 2.881215496883541E+04
 VX=-2.333039326344371E+01 VY= 1.731177690975798E+01 VZ=-7.731042439808089E-02
 LT= 4.930573416030236E+02 RG= 1.478148723741161E+08 RR=-3.430093397558848E-01
2459167.958333333 = A.D. 2020-Nov-14 11:00:00.0000 TDB 
 X = 8.939335302201517E+07 Y = 1.177187502874615E+08 Z = 2.853268109752238E+04
 VX=-2.333539301683526E+01 VY= 1.730181751434673E+01 VZ=-7.795136529038249E-02
 LT= 4.930532802416070E+02 RG= 1.478136548085942E+08 RR=-3.334124617652948E-01
2459168.000000000 = A.D. 2020-Nov-14 12:00:00.0000 TDB 
 X = 8.930933650332427E+07 Y = 1.177810190283379E+08 Z = 2.825091579321772E+04
 VX=-2.334046240364406E+01 VY= 1.729194117393715E+01 VZ=-7.858342750668168E-02
 LT= 4.930493342456717E+02 RG= 1.478124718287735E+08 RR=-3.237952654974858E-01
2459168.041666667 = A.D. 2020-Nov-14 13:00:00.0000 TDB 
 X = 8.922530160774784E+07 Y = 1.178432523623400E+08 Z = 2.796689118241519E+04
 VX=-2.334560259083544E+01 VY= 1.728214685473918E+01 VZ=-7.920652065531719E-02
 LT= 4.930455038518410E+02 RG= 1.478113235055918E+08 RR=-3.141589783156800E-01
2459168.083333333 = A.D. 2020-Nov-14 14:00:00.0000 TDB 
 X = 8.914124807832824E+07 Y = 1.179054505828555E+08 Z = 2.768063971380889E+04
 VX=-2.335081472914425E+01 VY= 1.727243350444822E+01 VZ=-7.982055610552674E-02
 LT= 4.930417892819744E+02 RG= 1.478102099055611E+08 RR=-3.045048316362174E-01
2459168.125000000 = A.D. 2020-Nov-14 15:00:00.0000 TDB 
 X = 8.905717565399501E+07 Y = 1.179676139794509E+08 Z = 2.739219415197521E+04
 VX=-2.335609995270165E+01 VY= 1.726280005256744E+01 VZ=-8.042544701624266E-02
 LT= 4.930381907431225E+02 RG= 1.478091310907535E+08 RR=-2.948340605358034E-01
2459168.166666667 = A.D. 2020-Nov-14 16:00:00.0000 TDB 
 X = 8.897308406962520E+07 Y = 1.180297428378067E+08 Z = 2.710158757084608E+04
 VX=-2.336145937866984E+01 VY= 1.725324541073949E+01 VZ=-8.102110836399845E-02
 LT= 4.930347084274838E+02 RG= 1.478080871187887E+08 RR=-2.851479033563690E-01
2459168.208333333 = A.D. 2020-Nov-14 17:00:00.0000 TDB 
 X = 8.888897305610520E+07 Y = 1.180918374396539E+08 Z = 2.680885334711522E+04
 VX=-2.336689410688491E+01 VY= 1.724376847308768E+01 VZ=-8.160745696996674E-02
 LT= 4.930313425123701E+02 RG= 1.478070780428233E+08 RR=-2.754476013077495E-01
2459168.250000000 = A.D. 2020-Nov-14 18:00:00.0000 TDB 
 X = 8.880484234039362E+07 Y = 1.181538980627110E+08 Z = 2.651402515359968E+04
 VX=-2.337240521950830E+01 VY= 1.723436811656608E+01 VZ=-8.218441152608147E-02
 LT= 4.930280931601715E+02 RG= 1.478061039115408E+08 RR=-2.657343980685891E-01
2459168.291666667 = A.D. 2020-Nov-14 19:00:00.0000 TDB 
 X = 8.872069164558572E+07 Y = 1.182159249806233E+08 Z = 2.621713695236295E+04
 VX=-2.337799378068688E+01 VY= 1.722504320131847E+01 VZ=-8.275189262022398E-02
 LT= 4.930249605183323E+02 RG= 1.478051647691438E+08 RR=-2.560095393857487E-01
2459168.333333333 = A.D. 2020-Nov-14 20:00:00.0000 TDB 
 X = 8.863652069097871E+07 Y = 1.182779184629031E+08 Z = 2.591822298794985E+04
 VX=-2.338366083622211E+01 VY= 1.721579257104590E+01 VZ=-8.330982276047649E-02
 LT= 4.930219447193261E+02 RG= 1.478042606553469E+08 RR=-2.462742726723707E-01
2459168.375000000 = A.D. 2020-Nov-14 21:00:00.0000 TDB 
 X = 8.855232919213839E+07 Y = 1.183398787748706E+08 Z = 2.561731778038293E+04
 VX=-2.338940741324832E+01 VY= 1.720661505338241E+01 VZ=-8.385812639839063E-02
 LT= 4.930190458806399E+02 RG= 1.478033916053718E+08 RR=-2.365298466051596E-01
2459168.416666667 = A.D. 2020-Nov-14 22:00:00.0000 TDB 
 X = 8.846811686096697E+07 Y = 1.184018061775975E+08 Z = 2.531445611806214E+04
 VX=-2.339523451992051E+01 VY= 1.719750946027878E+01 VZ=-8.439672995128866E-02
 LT= 4.930162641047600E+02 RG= 1.478025576499431E+08 RR=-2.267775107209551E-01
2459168.458333333 = A.D. 2020-Nov-14 23:00:00.0000 TDB 
 X = 8.838388340577196E+07 Y = 1.184637009278507E+08 Z = 2.500967305082828E+04
 VX=-2.340114314511176E+01 VY= 1.718847458839406E+01 VZ=-8.492556182358069E-02
 LT= 4.930135994791650E+02 RG= 1.478017588152864E+08 RR=-2.170185150129592E-01
